GLOBALSTAR M024         
1 25883U 99043A   25314.58870620 -.00000098  00000+0 -11611-2 0  9992
2 25883  52.0045  50.2846 0000881 359.5137  13.5830 11.10170165131120
GLOBALSTAR M027         
1 25884U 99043B   25314.94507415 -.00000046  00000+0  66686-3 0  9997
2 25884  52.0170 131.6234 0020642 226.1249 133.7839 11.04373219157451
GLOBALSTAR M054         
1 25885U 99043C   25314.50717881 -.00000003  00000+0  17447-2 0  9993
2 25885  52.0128 235.3439 0005884  66.0077 105.3954 11.39223181135724
GLOBALSTAR M053         
1 25886U 99043D   25314.58335278 -.00000045  00000+0  68746-3 0  9993
2 25886  51.9956 190.3800 0003419 352.4566  12.5086 11.27668481135965
GLOBALSTAR M058         
1 25907U 99049A   25314.65564090 -.00000064  00000+0  27271-3 0  9996
2 25907  51.9938  78.0596 0002201 173.3502 186.7363 11.93204080559024
GLOBALSTAR M050         
1 25908U 99049B   25314.75648786  .00000018  00000+0  12032-2 0  9999
2 25908  51.9992  74.5162 0008340 326.8058 181.8335 12.07460546165896
GLOBALSTAR M033         
1 25909U 99049C   25314.31235516 -.00000091  00000+0  74867-5 0  9994
2 25909  51.9919 297.4775 0013612 205.1606 154.8579 12.20292932553582
GLOBALSTAR M055         
1 25910U 99049D   25314.35341693 -.00000052  00000+0  36117-3 0  9995
2 25910  52.0028 300.9930 0007300  73.8933 286.2722 12.29435412186268
